[{"OBJECT_NAME":"IRIDIUM 141","OBJECT_ID":"2017-083H","EPOCH":"2026-03-09T20:26:47.196096","MEAN_MOTION":14.34219969,"ECCENTRICITY":0.00021763,"INCLINATION":86.4016,"RA_OF_ASC_NODE":3.5025,"ARG_OF_PERICENTER":80.8622,"MEAN_ANOMALY":279.282,"EPHEMERIS_TYPE":0,"CLASSIFICATION_TYPE":"U","NORAD_CAT_ID":43077,"ELEMENT_SET_NO":999,"REV_AT_EPOCH":42993,"BSTAR":0.00010189032,"MEAN_MOTION_DOT":3.05e-6,"MEAN_MOTION_DDOT":0},{"OBJECT_NAME":"SL-8 R\/B","OBJECT_ID":"1987-098B","EPOCH":"2026-03-09T17:56:50.021952","MEAN_MOTION":14.38319458,"ECCENTRICITY":0.00209664,"INCLINATION":74.0073,"RA_OF_ASC_NODE":181.5719,"ARG_OF_PERICENTER":207.8065,"MEAN_ANOMALY":152.197,"EPHEMERIS_TYPE":0,"CLASSIFICATION_TYPE":"U","NORAD_CAT_ID":18586,"ELEMENT_SET_NO":999,"REV_AT_EPOCH":482,"BSTAR":0.00011991031,"MEAN_MOTION_DOT":3.39e-6,"MEAN_MOTION_DDOT":0}]
